PANDORA
1 67395U 80229J   26073.29600694  .00000000  00000-0  37770-3 0    05
2 67395  97.8057  73.4441 0007106  82.7405 332.3208 14.87875322    09
